CTC1_L_00217001-01
1 10000U 26654JI  26075.70032407  .00000000  00000+0  00000-0 0  9996
2 10000  95.0000   0.0000 0000000   0.0000   0.0000 13.42494874    14
CTC1_L_00217001-02
1 10001U 26639DB  26075.70032407  .00000000  00000+0  00000-0 0  9990
2 10001  95.0000   0.0000 0000000   0.0000  90.0000 13.42494874    14
CTC1_L_00217001-03
1 10002U 22896ZO  26075.70032407  .00000000  00000+0  00000-0 0  9992
2 10002  95.0000   0.0000 0000000   0.0000 180.0000 13.42494874    15
CTC1_L_00217001-04
1 10003U 23776GK  26075.70032407  .00000000  00000+0  00000-0 0  9991
2 10003  95.0000   0.0000 0000000   0.0000 270.0000 13.42494874    16
CTC1_L_00217002-01
1 10004U 24962OX  26075.70032407  .00000000  00000+0  00000-0 0  9990
2 10004  95.0000  12.0000 0000000   0.0000  12.0000 13.42494874    14
CTC1_L_00217002-02
1 10005U 25235ZY  26075.70032407  .00000000  00000+0  00000-0 0  9995
2 10005  95.0000  12.0000 0000000   0.0000 102.0000 13.42494874    15
CTC1_L_00217002-03
1 10006U 22973CI  26075.70032407  .00000000  00000+0  00000-0 0  9992
2 10006  95.0000  12.0000 0000000   0.0000 192.0000 13.42494874    15
CTC1_L_00217002-04
1 10007U 23507RC  26075.70032407  .00000000  00000+0  00000-0 0  9997
2 10007  95.0000  12.0000 0000000   0.0000 282.0000 13.42494874    16
CTC1_L_00217003-01
1 10008U 22091WW  26075.70032407  .00000000  00000+0  00000-0 0  9995
2 10008  95.0000  24.0000 0000000   0.0000  24.0000 13.42494874    14
CTC1_L_00217003-02
1 10009U 23731FI  26075.70032407  .00000000  00000+0  00000-0 0  9998
2 10009  95.0000  24.0000 0000000   0.0000 114.0000 13.42494874    15
CTC1_L_00217003-03
1 10010U 23199RV  26075.70032407  .00000000  00000+0  00000-0 0  9998
2 10010  95.0000  24.0000 0000000   0.0000 204.0000 13.42494874    17
CTC1_L_00217003-04
1 10011U 25488VD  26075.70032407  .00000000  00000+0  00000-0 0  9992
2 10011  95.0000  24.0000 0000000   0.0000 294.0000 13.42494874    17
CTC1_L_00217004-01
1 10012U 22283KM  26075.70032407  .00000000  00000+0  00000-0 0  9993
2 10012  95.0000  36.0000 0000000   0.0000  36.0000 13.42494874    15
CTC1_L_00217004-02
1 10013U 26953TY  26075.70032407  .00000000  00000+0  00000-0 0  9992
2 10013  95.0000  36.0000 0000000   0.0000 126.0000 13.42494874    16
CTC1_L_00217004-03
1 10014U 26894PT  26075.70032407  .00000000  00000+0  00000-0 0  9997
2 10014  95.0000  36.0000 0000000   0.0000 216.0000 13.42494874    17
CTC1_L_00217004-04
1 10015U 23456EV  26075.70032407  .00000000  00000+0  00000-0 0  9999
2 10015  95.0000  36.0000 0000000   0.0000 306.0000 13.42494874    18
CTC1_L_00217005-01
1 10016U 25216OP  26075.70032407  .00000000  00000+0  00000-0 0  9996
2 10016  95.0000  48.0000 0000000   0.0000  48.0000 13.42494874    15
CTC1_L_00217005-02
1 10017U 26256EV  26075.70032407  .00000000  00000+0  00000-0 0  9992
2 10017  95.0000  48.0000 0000000   0.0000 138.0000 13.42494874    16
CTC1_L_00217005-03
1 10018U 23586QK  26075.70032407  .00000000  00000+0  00000-0 0  9996
2 10018  95.0000  48.0000 0000000   0.0000 228.0000 13.42494874    17
CTC1_L_00217005-04
1 10019U 24734PS  26075.70032407  .00000000  00000+0  00000-0 0  9993
2 10019  95.0000  48.0000 0000000   0.0000 318.0000 13.42494874    18
CTC1_L_00217006-01
1 10020U 24226EX  26075.70032407  .00000000  00000+0  00000-0 0  9991
2 10020  95.0000  60.0000 0000000   0.0000  60.0000 13.42494874    18
CTC1_L_00217006-02
1 10021U 24891LA  26075.70032407  .00000000  00000+0  00000-0 0  9990
2 10021  95.0000  60.0000 0000000   0.0000 150.0000 13.42494874    19
CTC1_L_00217006-03
1 10022U 24994GV  26075.70032407  .00000000  00000+0  00000-0 0  9995
2 10022  95.0000  60.0000 0000000   0.0000 240.0000 13.42494874    10
CTC1_L_00217006-04
1 10023U 24155BL  26075.70032407  .00000000  00000+0  00000-0 0  9995
2 10023  95.0000  60.0000 0000000   0.0000 330.0000 13.42494874    11
CTC1_L_00217007-01
1 10024U 25584ME  26075.70032407  .00000000  00000+0  00000-0 0  9993
2 10024  95.0000  72.0000 0000000   0.0000  72.0000 13.42494874    18
CTC1_L_00217007-02
1 10025U 23449HS  26075.70032407  .00000000  00000+0  00000-0 0  9992
2 10025  95.0000  72.0000 0000000   0.0000 162.0000 13.42494874    19
CTC1_L_00217007-03
1 10026U 22304NC  26075.70032407  .00000000  00000+0  00000-0 0  9992
2 10026  95.0000  72.0000 0000000   0.0000 252.0000 13.42494874    10
CTC1_L_00217007-04
1 10027U 22489FJ  26075.70032407  .00000000  00000+0  00000-0 0  9997
2 10027  95.0000  72.0000 0000000   0.0000 342.0000 13.42494874    11
CTC1_L_00217008-01
1 10028U 23738JE  26075.70032407  .00000000  00000+0  00000-0 0  9996
2 10028  95.0000  84.0000 0000000   0.0000  84.0000 13.42494874    18
CTC1_L_00217008-02
1 10029U 24788EL  26075.70032407  .00000000  00000+0  00000-0 0  9993
2 10029  95.0000  84.0000 0000000   0.0000 174.0000 13.42494874    19
CTC1_L_00217008-03
1 10030U 25192AT  26075.70032407  .00000000  00000+0  00000-0 0  9995
2 10030  95.0000  84.0000 0000000   0.0000 264.0000 13.42494874    11
CTC1_L_00217008-04
1 10031U 26697AW  26075.70032407  .00000000  00000+0  00000-0 0  9997
2 10031  95.0000  84.0000 0000000   0.0000 354.0000 13.42494874    12
CTC1_L_00217009-01
1 10032U 25732MN  26075.70032407  .00000000  00000+0  00000-0 0  9997
2 10032  95.0000  96.0000 0000000   0.0000  96.0000 13.42494874    19
CTC1_L_00217009-02
1 10033U 25062QU  26075.70032407  .00000000  00000+0  00000-0 0  9994
2 10033  95.0000  96.0000 0000000   0.0000 186.0000 13.42494874    10
CTC1_L_00217009-03
1 10034U 26445Z   26075.70032407  .00000000  00000+0  00000-0 0  9991
2 10034  95.0000  96.0000 0000000   0.0000 276.0000 13.42494874    11
CTC1_L_00217009-04
1 10035U 23307HE  26075.70032407  .00000000  00000+0  00000-0 0  9996
2 10035  95.0000  96.0000 0000000   0.0000   6.0000 13.42494874    13
CTC1_L_00217010-01
1 10036U 26985ZL  26075.70032407  .00000000  00000+0  00000-0 0  9992
2 10036  95.0000 108.0000 0000000   0.0000 108.0000 13.42494874    11
CTC1_L_00217010-02
1 10037U 23895RD  26075.70032407  .00000000  00000+0  00000-0 0  9990
2 10037  95.0000 108.0000 0000000   0.0000 198.0000 13.42494874    11
CTC1_L_00217010-03
1 10038U 26214XF  26075.70032407  .00000000  00000+0  00000-0 0  9999
2 10038  95.0000 108.0000 0000000   0.0000 288.0000 13.42494874    12
CTC1_L_00217010-04
1 10039U 23936CQ  26075.70032407  .00000000  00000+0  00000-0 0  9998
2 10039  95.0000 108.0000 0000000   0.0000  18.0000 13.42494874    14
CTC1_L_00217011-01
1 10040U 24456GN  26075.70032407  .00000000  00000+0  00000-0 0  9998
2 10040  95.0000 120.0000 0000000   0.0000 120.0000 13.42494874    14
CTC1_L_00217011-02
1 10041U 22955QX  26075.70032407  .00000000  00000+0  00000-0 0  9991
2 10041  95.0000 120.0000 0000000   0.0000 210.0000 13.42494874    15
CTC1_L_00217011-03
1 10042U 25328NE  26075.70032407  .00000000  00000+0  00000-0 0  9999
2 10042  95.0000 120.0000 0000000   0.0000 300.0000 13.42494874    16
CTC1_L_00217011-04
1 10043U 24089OF  26075.70032407  .00000000  00000+0  00000-0 0  9993
2 10043  95.0000 120.0000 0000000   0.0000  30.0000 13.42494874    17
CTC1_L_00217012-01
1 10044U 24602VL  26075.70032407  .00000000  00000+0  00000-0 0  9995
2 10044  95.0000 132.0000 0000000   0.0000 132.0000 13.42494874    14
CTC1_L_00217012-02
1 10045U 26839AL  26075.70032407  .00000000  00000+0  00000-0 0  9990
2 10045  95.0000 132.0000 0000000   0.0000 222.0000 13.42494874    15
CTC1_L_00217012-03
1 10046U 22410ZX  26075.70032407  .00000000  00000+0  00000-0 0  9992
2 10046  95.0000 132.0000 0000000   0.0000 312.0000 13.42494874    16
CTC1_L_00217012-04
1 10047U 22239IS  26075.70032407  .00000000  00000+0  00000-0 0  9992
2 10047  95.0000 132.0000 0000000   0.0000  42.0000 13.42494874    17
CTC1_L_00217013-01
1 10048U 26944IT  26075.70032407  .00000000  00000+0  00000-0 0  9990
2 10048  95.0000 144.0000 0000000   0.0000 144.0000 13.42494874    14
CTC1_L_00217013-02
1 10049U 25491CK  26075.70032407  .00000000  00000+0  00000-0 0  9997
2 10049  95.0000 144.0000 0000000   0.0000 234.0000 13.42494874    15
CTC1_L_00217013-03
1 10050U 23198JB  26075.70032407  .00000000  00000+0  00000-0 0  9991
2 10050  95.0000 144.0000 0000000   0.0000 324.0000 13.42494874    17
CTC1_L_00217013-04
1 10051U 22229WR  26075.70032407  .00000000  00000+0  00000-0 0  9996
2 10051  95.0000 144.0000 0000000   0.0000  54.0000 13.42494874    18
CTC1_L_00217014-01
1 10052U 23902SS  26075.70032407  .00000000  00000+0  00000-0 0  9996
2 10052  95.0000 156.0000 0000000   0.0000 156.0000 13.42494874    15
CTC1_L_00217014-02
1 10053U 26626JT  26075.70032407  .00000000  00000+0  00000-0 0  9993
2 10053  95.0000 156.0000 0000000   0.0000 246.0000 13.42494874    16
CTC1_L_00217014-03
1 10054U 22544BS  26075.70032407  .00000000  00000+0  00000-0 0  9999
2 10054  95.0000 156.0000 0000000   0.0000 336.0000 13.42494874    17
CTC1_L_00217014-04
1 10055U 26802NG  26075.70032407  .00000000  00000+0  00000-0 0  9991
2 10055  95.0000 156.0000 0000000   0.0000  66.0000 13.42494874    18
CTC1_L_00217015-01
1 10056U 22073FU  26075.70032407  .00000000  00000+0  00000-0 0  9998
2 10056  95.0000 168.0000 0000000   0.0000 168.0000 13.42494874    15
CTC1_L_00217015-02
1 10057U 24731ML  26075.70032407  .00000000  00000+0  00000-0 0  9992
2 10057  95.0000 168.0000 0000000   0.0000 258.0000 13.42494874    16
CTC1_L_00217015-03
1 10058U 26688FH  26075.70032407  .00000000  00000+0  00000-0 0  9996
2 10058  95.0000 168.0000 0000000   0.0000 348.0000 13.42494874    17
CTC1_L_00217015-04
1 10059U 26591JF  26075.70032407  .00000000  00000+0  00000-0 0  9990
2 10059  95.0000 168.0000 0000000   0.0000  78.0000 13.42494874    18
CTC1_L_00217016-01
1 10060U 24264TR  26075.70032407  .00000000  00000+0  00000-0 0  9997
2 10060  95.0000 180.0000 0000000   0.0000 180.0000 13.42494874    18
CTC1_L_00217016-02
1 10061U 25444RI  26075.70032407  .00000000  00000+0  00000-0 0  9999
2 10061  95.0000 180.0000 0000000   0.0000 270.0000 13.42494874    19
